[
    {
        "Altitude(m)": 604983.0528421785,
        "Argument of Periapsis(deg)": 0.0,
        "Eccentricity": 0.0,
        "Inclination(deg)": 60.0,
        "Latitude(deg)": -0.09254180612570934,
        "Longitude(deg)": 120.08391631378709,
        "Mean Anomaly(deg)": 180.0,
        "RAAN(deg)": 40.0,
        "Satellite Name": "Test1 187",
        "Satellite Number": 187,
        "Semi-Major Axis(m)": 6980739.136638005,
        "Time(s)": 0
    },
    {
        "Altitude(m)": 605055.331563198,
        "Argument of Periapsis(deg)": 0.00010418945913296404,
        "Eccentricity": 0.0,
        "Inclination(deg)": 60.0,
        "Latitude(deg)": -0.6329519371178873,
        "Longitude(deg)": 120.35204071097455,
        "Mean Anomaly(deg)": 180.62010614546185,
        "RAAN(deg)": 39.99957995086026,
        "Satellite Name": "Test1 187",
        "Satellite Number": 187,
        "Semi-Major Axis(m)": 6980739.136638005,
        "Time(s)": 10
    }
]